{
  "type": "FeatureCollection",
  "features": [
    {
      "type": "Feature",
      "properties": {
        "norad_id": 36167,
        "name": "FENGYUN 1C DEB",
        "group": "fengyun-1c-debris",
        "lat": 58.13871435868977,
        "lon": 90.90114310847434,
        "alt_km": 743.908550171057,
        "timestamp": "2025-12-15T04:01:20.739507+00:00",
        "meta_object_name": "FENGYUN 1C DEB",
        "meta_object_id": "1999-025DSQ",
        "meta_epoch": "2025-12-11T11:38:30.131808",
        "meta_mean_motion": 14.49236898,
        "meta_eccentricity": 0.00689441,
        "meta_inclination": 98.812,
        "meta_ra_of_asc_node": 252.6028,
        "meta_arg_of_pericenter": 248.2958,
        "meta_mean_anomaly": 111.0884,
        "meta_ephemeris_type": 0,
        "meta_classification_type": "U",
        "meta_norad_cat_id": 36167,
        "meta_element_set_no": 999,
        "meta_rev_at_epoch": 67261,
        "meta_bstar": 0.0021364842,
        "meta_mean_motion_dot": 8.349e-05,
        "meta_mean_motion_ddot": 0,
        "tle_line1": "1 36167U 99025DSQ 25345.48507097  .00008349  00000+0  21365-2 0  9999",
        "tle_line2": "2 36167  98.8120 252.6028 0068944 248.2958 111.0884 14.49236898672616"
      },
      "geometry": {
        "type": "Point",
        "coordinates": [
          90.90114310847434,
          58.13871435868977
        ]
      }
    },
    {
      "type": "Feature",
      "properties": {
        "norad_id": 36173,
        "name": "FENGYUN 1C DEB",
        "group": "fengyun-1c-debris",
        "lat": -30.962894771025212,
        "lon": -48.89348985530534,
        "alt_km": 905.8178971646512,
        "timestamp": "2025-12-15T04:01:20.739517+00:00",
        "meta_object_name": "FENGYUN 1C DEB",
        "meta_object_id": "1999-025DSW",
        "meta_epoch": "2025-12-13T15:06:11.838816",
        "meta_mean_motion": 14.25174988,
        "meta_eccentricity": 0.01471409,
        "meta_inclination": 98.2142,
        "meta_ra_of_asc_node": 304.6937,
        "meta_arg_of_pericenter": 182.5109,
        "meta_mean_anomaly": 177.535,
        "meta_ephemeris_type": 0,
        "meta_classification_type": "U",
        "meta_norad_cat_id": 36173,
        "meta_element_set_no": 999,
        "meta_rev_at_epoch": 59103,
        "meta_bstar": 0.00034958587,
        "meta_mean_motion_dot": 8.78e-06,
        "meta_mean_motion_ddot": 0,
        "tle_line1": "1 36173U 99025DSW 25347.62930369  .00000878  00000+0  34959-3 0  9999",
        "tle_line2": "2 36173  98.2142 304.6937 0147140 182.5109 177.5350 14.25174988591038"
      },
      "geometry": {
        "type": "Point",
        "coordinates": [
          -48.89348985530534,
          -30.962894771025212
        ]
      }
    },
    {
      "type": "Feature",
      "properties": {
        "norad_id": 36180,
        "name": "FENGYUN 1C DEB",
        "group": "fengyun-1c-debris",
        "lat": -79.79859854534253,
        "lon": 176.91336545985843,
        "alt_km": 902.642990066779,
        "timestamp": "2025-12-15T04:01:20.739527+00:00",
        "meta_object_name": "FENGYUN 1C DEB",
        "meta_object_id": "1999-025DTD",
        "meta_epoch": "2025-12-05T21:21:22.276224",
        "meta_mean_motion": 14.20680074,
        "meta_eccentricity": 0.02106275,
        "meta_inclination": 98.4572,
        "meta_ra_of_asc_node": 43.7979,
        "meta_arg_of_pericenter": 50.8055,
        "meta_mean_anomaly": 311.1621,
        "meta_ephemeris_type": 0,
        "meta_classification_type": "U",
        "meta_norad_cat_id": 36180,
        "meta_element_set_no": 999,
        "meta_rev_at_epoch": 70486,
        "meta_bstar": 0.00091841135,
        "meta_mean_motion_dot": 2.432e-05,
        "meta_mean_motion_ddot": 0,
        "tle_line1": "1 36180U 99025DTD 25339.88984116  .00002432  00000+0  91841-3 0  9996",
        "tle_line2": "2 36180  98.4572  43.7979 0210627  50.8055 311.1621 14.20680074704867"
      },
      "geometry": {
        "type": "Point",
        "coordinates": [
          176.91336545985843,
          -79.79859854534253
        ]
      }
    },
    {
      "type": "Feature",
      "properties": {
        "norad_id": 36182,
        "name": "FENGYUN 1C DEB",
        "group": "fengyun-1c-debris",
        "lat": -80.36533788226849,
        "lon": 26.302577524851635,
        "alt_km": 798.0752776460276,
        "timestamp": "2025-12-15T04:01:20.739538+00:00",
        "meta_object_name": "FENGYUN 1C DEB",
        "meta_object_id": "1999-025DTF",
        "meta_epoch": "2025-12-12T06:09:38.316672",
        "meta_mean_motion": 14.34717961,
        "meta_eccentricity": 0.00219109,
        "meta_inclination": 99.0882,
        "meta_ra_of_asc_node": 273.786,
        "meta_arg_of_pericenter": 77.1307,
        "meta_mean_anomaly": 283.2322,
        "meta_ephemeris_type": 0,
        "meta_classification_type": "U",
        "meta_norad_cat_id": 36182,
        "meta_element_set_no": 999,
        "meta_rev_at_epoch": 87950,
        "meta_bstar": 0.002429124,
        "meta_mean_motion_dot": 6.856e-05,
        "meta_mean_motion_ddot": 0,
        "tle_line1": "1 36182U 99025DTF 25346.25669348  .00006856  00000+0  24291-2 0  9992",
        "tle_line2": "2 36182  99.0882 273.7860 0021910  77.1307 283.2322 14.34717961879503"
      },
      "geometry": {
        "type": "Point",
        "coordinates": [
          26.302577524851635,
          -80.36533788226849
        ]
      }
    },
    {
      "type": "Feature",
      "properties": {
        "norad_id": 36186,
        "name": "FENGYUN 1C DEB",
        "group": "fengyun-1c-debris",
        "lat": 79.77113987833731,
        "lon": 94.22769334816157,
        "alt_km": 525.1824887157109,
        "timestamp": "2025-12-15T04:01:20.739548+00:00",
        "meta_object_name": "FENGYUN 1C DEB",
        "meta_object_id": "1999-025DTK",
        "meta_epoch": "2025-12-06T21:01:26.135616",
        "meta_mean_motion": 15.09149878,
        "meta_eccentricity": 0.00147295,
        "meta_inclination": 98.9889,
        "meta_ra_of_asc_node": 203.1836,
        "meta_arg_of_pericenter": 349.9169,
        "meta_mean_anomaly": 20.7197,
        "meta_ephemeris_type": 0,
        "meta_classification_type": "U",
        "meta_norad_cat_id": 36186,
        "meta_element_set_no": 999,
        "meta_rev_at_epoch": 61482,
        "meta_bstar": 0.015546812,
        "meta_mean_motion_dot": 0.00256087,
        "meta_mean_motion_ddot": 0,
        "tle_line1": "1 36186U 99025DTK 25340.87599694  .00256087  00000+0  15547-1 0  9990",
        "tle_line2": "2 36186  98.9889 203.1836 0014729 349.9169  20.7197 15.09149878614823"
      },
      "geometry": {
        "type": "Point",
        "coordinates": [
          94.22769334816157,
          79.77113987833731
        ]
      }
    },
    {
      "type": "Feature",
      "properties": {
        "norad_id": 36188,
        "name": "FENGYUN 1C DEB",
        "group": "fengyun-1c-debris",
        "lat": -18.06822566254385,
        "lon": -93.14696622494262,
        "alt_km": 700.8256684830958,
        "timestamp": "2025-12-15T04:01:20.739559+00:00",
        "meta_object_name": "FENGYUN 1C DEB",
        "meta_object_id": "1999-025DTM",
        "meta_epoch": "2025-12-10T17:53:45.757536",
        "meta_mean_motion": 14.60603785,
        "meta_eccentricity": 0.00476278,
        "meta_inclination": 98.5851,
        "meta_ra_of_asc_node": 85.0962,
        "meta_arg_of_pericenter": 310.9096,
        "meta_mean_anomaly": 48.7983,
        "meta_ephemeris_type": 0,
        "meta_classification_type": "U",
        "meta_norad_cat_id": 36188,
        "meta_element_set_no": 999,
        "meta_rev_at_epoch": 88023,
        "meta_bstar": 0.0038994823,
        "meta_mean_motion_dot": 0.00019263,
        "meta_mean_motion_ddot": 0,
        "tle_line1": "1 36188U 99025DTM 25344.74566849  .00019263  00000+0  38995-2 0  9994",
        "tle_line2": "2 36188  98.5851  85.0962 0047627 310.9096  48.7983 14.60603785880238"
      },
      "geometry": {
        "type": "Point",
        "coordinates": [
          -93.14696622494262,
          -18.06822566254385
        ]
      }
    },
    {
      "type": "Feature",
      "properties": {
        "norad_id": 36198,
        "name": "FENGYUN 1C DEB",
        "group": "fengyun-1c-debris",
        "lat": -0.8866092823721786,
        "lon": -161.72886528971796,
        "alt_km": 847.5267324167662,
        "timestamp": "2025-12-15T04:01:20.739569+00:00",
        "meta_object_name": "FENGYUN 1C DEB",
        "meta_object_id": "1999-025DTX",
        "meta_epoch": "2025-12-11T20:43:05.397888",
        "meta_mean_motion": 14.07895366,
        "meta_eccentricity": 0.0096761,
        "meta_inclination": 98.6241,
        "meta_ra_of_asc_node": 15.2488,
        "meta_arg_of_pericenter": 117.8729,
        "meta_mean_anomaly": 243.2283,
        "meta_ephemeris_type": 0,
        "meta_classification_type": "U",
        "meta_norad_cat_id": 36198,
        "meta_element_set_no": 999,
        "meta_rev_at_epoch": 63575,
        "meta_bstar": 0.0023599,
        "meta_mean_motion_dot": 4.141e-05,
        "meta_mean_motion_ddot": 0,
        "tle_line1": "1 36198U 99025DTX 25345.86325692  .00004141  00000+0  23599-2 0  9991",
        "tle_line2": "2 36198  98.6241  15.2488 0096761 117.8729 243.2283 14.07895366635750"
      },
      "geometry": {
        "type": "Point",
        "coordinates": [
          -161.72886528971796,
          -0.8866092823721786
        ]
      }
    }
  ]
}